[{"OBJECT_NAME":"STARLINK-5346","OBJECT_ID":"2023-065R","EPOCH":"2026-03-09T22:00:01.999584","MEAN_MOTION":15.05829958,"ECCENTRICITY":9.492e-5,"INCLINATION":43.001,"RA_OF_ASC_NODE":209.0716,"ARG_OF_PERICENTER":280.7419,"MEAN_ANOMALY":282.2916,"EPHEMERIS_TYPE":0,"CLASSIFICATION_TYPE":"U","NORAD_CAT_ID":56518,"ELEMENT_SET_NO":999,"REV_AT_EPOCH":577,"BSTAR":0.0043856072,"MEAN_MOTION_DOT":0.00065089,"MEAN_MOTION_DDOT":0},{"OBJECT_NAME":"NOAA 16 DEB","OBJECT_ID":"2000-055BZ","EPOCH":"2026-03-09T09:57:46.840608","MEAN_MOTION":15.04968987,"ECCENTRICITY":0.00133628,"INCLINATION":98.8453,"RA_OF_ASC_NODE":286.076,"ARG_OF_PERICENTER":194.204,"MEAN_ANOMALY":165.8809,"EPHEMERIS_TYPE":0,"CLASSIFICATION_TYPE":"U","NORAD_CAT_ID":41142,"ELEMENT_SET_NO":999,"REV_AT_EPOCH":53866,"BSTAR":0.0051237154,"MEAN_MOTION_DOT":0.00073426,"MEAN_MOTION_DDOT":0}]
